BEIJING 1               
1 28890U 05043A   22117.05590208  .00000308  00000+0  71514-4 0  9993
2 28890  98.1089 240.4301 0014711 340.3623  19.6986 14.61423687879637
HJ-1A                   
1 33320U 08041A   22117.09751699  .00000519  00000+0  78863-4 0  9993
2 33320  97.6829 152.5528 0022257  42.1387 318.1542 14.77796567734800
HJ-1B                   
1 33321U 08041B   22117.24229255  .00001192  00000+0  17190-3 0  9992
2 33321  97.7006 156.1522 0035778  58.0547 302.4136 14.77629463734826
YAOGAN 4                
1 33446U 08061A   22117.10624740  .00000785  00000+0  11743-3 0  9990
2 33446  97.8136  58.8113 0014983 303.8645  56.1139 14.77314172722010
DEIMOS-1                
1 35681U 09041A   22117.07575532  .00000411  00000+0  72857-4 0  9992
2 35681  97.7209 330.7779 0002633  63.4686 296.6794 14.72017860684212
UK-DMC 2                
1 35683U 09041C   22117.07877752  .00000780  00000+0  13353-3 0  9997
2 35683  97.6953 292.9555 0001869  89.7103 270.4302 14.71353763683954
RISAT 1                 
1 38248U 12017A   22117.10344105  .00004524  00000+0  27030-3 0  9996
2 38248  97.5551 129.0547 0005827  82.2312 277.9579 15.11582130551089
DMC3-FM1                
1 40715U 15032A   22117.22416794  .00000557  00000+0  76659-4 0  9999
2 40715  97.8538   5.0288 0005589 342.5189  17.5838 14.82068709365709
DMC3-FM2                
1 40716U 15032B   22117.17884470  .00000570  00000+0  78329-4 0  9995
2 40716  97.8579   5.6016 0007542 341.6267  18.4682 14.82058207365707
DMC3-FM3                
1 40717U 15032C   22117.20161408  .00000566  00000+0  77908-4 0  9996
2 40717  97.8608   6.5140 0009194 335.8224  24.2568 14.82019367365704
